{"type": "FeatureCollection", "features": [ {"type": "Feature", "properties": {"norad_id": 39574, "name": "GPM-CORE", "group": "resource", "lat": 37.43690813046358, "lon": -121.23809588583116, "alt_km": 431.0126868567795, "timestamp": "2025-12-11T05:00:25.968029+00:00", "meta": {"OBJECT_NAME": "GPM-CORE", "OBJECT_ID": "2014-009C", "EPOCH": "2025-12-10T16:24:04.665312", "MEAN_MOTION": 15.45486984, "ECCENTRICITY": 0.00105076, "INCLINATION": 64.9737, "RA_OF_ASC_NODE": 219.5648, "ARG_OF_PERICENTER": 270.4002, "MEAN_ANOMALY": 89.5935, "EPHEMERIS_TYPE": 0, "CLASSIFICATION_TYPE": "U", "NORAD_CAT_ID": 39574, "ELEMENT_SET_NO": 999, "REV_AT_EPOCH": 66869, "BSTAR": 0.00036587407, "MEAN_MOTION_DOT": 0.00017462, "MEAN_MOTION_DDOT": 0}, "tle": {"line1": "1 39574U 14009C   25344.68338733  .00017462  00000+0  36587-3 0  9992", "line2": "2 39574  64.9737 219.5648 0010507 270.4002  89.5935 15.45486984668697"}}, "geometry": {"type": "Point", "coordinates": [-121.23809588583116, 37.43690813046358]}}, {"type": "Feature", "properties": {"norad_id": 39634, "name": "SENTINEL-1A", "group": "resource", "lat": 5.454548069717848, "lon": -10.314917472484522, "alt_km": 697.8304945313839, "timestamp": "2025-12-11T05:00:25.968039+00:00", "meta": {"OBJECT_NAME": "SENTINEL-1A", "OBJECT_ID": "2014-016A", "EPOCH": "2025-12-11T00:02:41.587872", "MEAN_MOTION": 14.59198454, "ECCENTRICITY": 0.00012405, "INCLINATION": 98.1804, "RA_OF_ASC_NODE": 350.2684, "ARG_OF_PERICENTER": 84.5386, "MEAN_ANOMALY": 275.5955, "EPHEMERIS_TYPE": 0, "CLASSIFICATION_TYPE": "U", "NORAD_CAT_ID": 39634, "ELEMENT_SET_NO": 999, "REV_AT_EPOCH": 62257, "BSTAR": -5.5671958e-05, "MEAN_MOTION_DOT": -3.08e-06, "MEAN_MOTION_DDOT": 0}, "tle": {"line1": "1 39634U 14016A   25345.00187023 -.00000308  00000+0 -55672-4 0  9998", "line2": "2 39634  98.1804 350.2684 0001240  84.5386 275.5955 14.59198454622576"}}, "geometry": {"type": "Point", "coordinates": [-10.314917472484522, 5.454548069717848]}}, {"type": "Feature", "properties": {"norad_id": 39731, "name": "KAZEOSAT 1", "group": "resource", "lat": 72.38937909471156, "lon": 29.61320304762596, "alt_km": 743.9872430713604, "timestamp": "2025-12-11T05:00:25.968049+00:00", "meta": {"OBJECT_NAME": "KAZEOSAT 1", "OBJECT_ID": "2014-024A", "EPOCH": "2025-12-10T22:00:08.375904", "MEAN_MOTION": 14.42060439, "ECCENTRICITY": 0.00010922, "INCLINATION": 98.3432, "RA_OF_ASC_NODE": 56.8646, "ARG_OF_PERICENTER": 94.6552, "MEAN_ANOMALY": 265.4763, "EPHEMERIS_TYPE": 0, "CLASSIFICATION_TYPE": "U", "NORAD_CAT_ID": 39731, "ELEMENT_SET_NO": 999, "REV_AT_EPOCH": 61142, "BSTAR": 9.9836686e-05, "MEAN_MOTION_DOT": 2.85e-06, "MEAN_MOTION_DDOT": 0}, "tle": {"line1": "1 39731U 14024A   25344.91676361  .00000285  00000+0  99837-4 0  9995", "line2": "2 39731  98.3432  56.8646 0001092  94.6552 265.4763 14.42060439611422"}}, "geometry": {"type": "Point", "coordinates": [29.61320304762596, 72.38937909471156]}}, {"type": "Feature", "properties": {"norad_id": 39766, "name": "ALOS-2", "group": "resource", "lat": 65.91210643621568, "lon": -81.77389629183048, "alt_km": 623.5429405771038, "timestamp": "2025-12-11T05:00:25.968059+00:00", "meta": {"OBJECT_NAME": "ALOS-2", "OBJECT_ID": "2014-029A", "EPOCH": "2025-12-10T15:30:49.837824", "MEAN_MOTION": 14.79468531, "ECCENTRICITY": 0.00015183, "INCLINATION": 97.9227, "RA_OF_ASC_NODE": 79.5227, "ARG_OF_PERICENTER": 98.8561, "MEAN_ANOMALY": 261.2822, "EPHEMERIS_TYPE": 0, "CLASSIFICATION_TYPE": "U", "NORAD_CAT_ID": 39766, "ELEMENT_SET_NO": 999, "REV_AT_EPOCH": 62370, "BSTAR": 0.00040295078, "MEAN_MOTION_DOT": 2.959e-05, "MEAN_MOTION_DDOT": 0}, "tle": {"line1": "1 39766U 14029A   25344.64641016  .00002959  00000+0  40295-3 0  9990", "line2": "2 39766  97.9227  79.5227 0001518  98.8561 261.2822 14.79468531623702"}}, "geometry": {"type": "Point", "coordinates": [-81.77389629183048, 65.91210643621568]}}, {"type": "Feature", "properties": {"norad_id": 40010, "name": "KAZEOSAT 2", "group": "resource", "lat": -8.41309762178797, "lon": -169.27379211812374, "alt_km": 621.1278661590095, "timestamp": "2025-12-11T05:00:25.968069+00:00", "meta": {"OBJECT_NAME": "KAZEOSAT 2", "OBJECT_ID": "2014-033A", "EPOCH": "2025-12-10T22:34:38.853408", "MEAN_MOTION": 14.85165822, "ECCENTRICITY": 0.00075278, "INCLINATION": 97.5503, "RA_OF_ASC_NODE": 189.3482, "ARG_OF_PERICENTER": 213.0355, "MEAN_ANOMALY": 147.0392, "EPHEMERIS_TYPE": 0, "CLASSIFICATION_TYPE": "U", "NORAD_CAT_ID": 40010, "ELEMENT_SET_NO": 999, "REV_AT_EPOCH": 62101, "BSTAR": 0.00023272796, "MEAN_MOTION_DOT": 1.943e-05, "MEAN_MOTION_DDOT": 0}, "tle": {"line1": "1 40010U 14033A   25344.94072747  .00001943  00000+0  23273-3 0  9990", "line2": "2 40010  97.5503 189.3482 0007527 213.0355 147.0392 14.85165822621019"}}, "geometry": {"type": "Point", "coordinates": [-169.27379211812374, -8.41309762178797]}}, {"type": "Feature", "properties": {"norad_id": 40011, "name": "HODOYOSHI-4", "group": "resource", "lat": 65.28649667175476, "lon": 157.4384053330221, "alt_km": 611.7755710157926, "timestamp": "2025-12-11T05:00:25.968079+00:00", "meta": {"OBJECT_NAME": "HODOYOSHI-4", "OBJECT_ID": "2014-033B", "EPOCH": "2025-12-10T23:51:54.207360", "MEAN_MOTION": 14.87470078, "ECCENTRICITY": 0.00231192, "INCLINATION": 97.5416, "RA_OF_ASC_NODE": 173.9644, "ARG_OF_PERICENTER": 206.7764, "MEAN_ANOMALY": 153.2261, "EPHEMERIS_TYPE": 0, "CLASSIFICATION_TYPE": "U", "NORAD_CAT_ID": 40011, "ELEMENT_SET_NO": 999, "REV_AT_EPOCH": 62082, "BSTAR": 0.00029919677, "MEAN_MOTION_DOT": 2.671e-05, "MEAN_MOTION_DDOT": 0}, "tle": {"line1": "1 40011U 14033B   25344.99437740  .00002671  00000+0  29920-3 0  9998", "line2": "2 40011  97.5416 173.9644 0023119 206.7764 153.2261 14.87470078620826"}}, "geometry": {"type": "Point", "coordinates": [157.4384053330221, 65.28649667175476]}}, {"type": "Feature", "properties": {"norad_id": 40013, "name": "DEIMOS-2", "group": "resource", "lat": -13.629384782331826, "lon": 39.202999515131715, "alt_km": 593.505646296805, "timestamp": "2025-12-11T05:00:25.968089+00:00", "meta": {"OBJECT_NAME": "DEIMOS-2", "OBJECT_ID": "2014-033D", "EPOCH": "2025-12-10T21:42:30.589344", "MEAN_MOTION": 14.92958714, "ECCENTRICITY": 9.323e-05, "INCLINATION": 97.6063, "RA_OF_ASC_NODE": 220.7658, "ARG_OF_PERICENTER": 90.5838, "MEAN_ANOMALY": 269.5489, "EPHEMERIS_TYPE": 0, "CLASSIFICATION_TYPE": "U", "NORAD_CAT_ID": 40013, "ELEMENT_SET_NO": 999, "REV_AT_EPOCH": 60962, "BSTAR": 0.00019162006, "MEAN_MOTION_DOT": 1.935e-05, "MEAN_MOTION_DDOT": 0}, "tle": {"line1": "1 40013U 14033D   25344.90452071  .00001935  00000+0  19162-3 0  9994", "line2": "2 40013  97.6063 220.7658 0000932  90.5838 269.5489 14.92958714609624"}}, "geometry": {"type": "Point", "coordinates": [39.202999515131715, -13.629384782331826]}}, {"type": "Feature", "properties": {"norad_id": 40015, "name": "HODOYOSHI-3", "group": "resource", "lat": 6.863552134542934, "lon": 150.186800946662, "alt_km": 625.2567986881731, "timestamp": "2025-12-11T05:00:25.968118+00:00", "meta": {"OBJECT_NAME": "HODOYOSHI-3", "OBJECT_ID": "2014-033F", "EPOCH": "2025-12-10T20:53:20.913216", "MEAN_MOTION": 14.84796542, "ECCENTRICITY": 0.00318544, "INCLINATION": 97.6201, "RA_OF_ASC_NODE": 150.7867, "ARG_OF_PERICENTER": 254.3284, "MEAN_ANOMALY": 105.4416, "EPHEMERIS_TYPE": 0, "CLASSIFICATION_TYPE": "U", "NORAD_CAT_ID": 40015, "ELEMENT_SET_NO": 999, "REV_AT_EPOCH": 61967, "BSTAR": 0.00032679763, "MEAN_MOTION_DOT": 2.746e-05, "MEAN_MOTION_DDOT": 0}, "tle": {"line1": "1 40015U 14033F   25344.87038094  .00002746  00000+0  32680-3 0  9998", "line2": "2 40015  97.6201 150.7867 0031854 254.3284 105.4416 14.84796542619670"}}, "geometry": {"type": "Point", "coordinates": [150.186800946662, 6.863552134542934]}}, {"type": "Feature", "properties": {"norad_id": 40053, "name": "SPOT 7", "group": "resource", "lat": -41.47151624423129, "lon": -139.90343557240095, "alt_km": 698.1759304022489, "timestamp": "2025-12-11T05:00:25.968133+00:00", "meta": {"OBJECT_NAME": "SPOT 7", "OBJECT_ID": "2014-034A", "EPOCH": "2025-12-10T23:03:45.496800", "MEAN_MOTION": 14.60729442, "ECCENTRICITY": 0.00015622, "INCLINATION": 98.0904, "RA_OF_ASC_NODE": 47.077, "ARG_OF_PERICENTER": 88.0294, "MEAN_ANOMALY": 272.1086, "EPHEMERIS_TYPE": 0, "CLASSIFICATION_TYPE": "U", "NORAD_CAT_ID": 40053, "ELEMENT_SET_NO": 999, "REV_AT_EPOCH": 60965, "BSTAR": 0.000157506, "MEAN_MOTION_DOT": 7.22e-06, "MEAN_MOTION_DDOT": 0}, "tle": {"line1": "1 40053U 14034A   25344.96094325  .00000722  00000+0  15751-3 0  9992", "line2": "2 40053  98.0904  47.0770 0001562  88.0294 272.1086 14.60729442609655"}}, "geometry": {"type": "Point", "coordinates": [-139.90343557240095, -41.47151624423129]}}, {"type": "Feature", "properties": {"norad_id": 40072, "name": "SKYSAT-B", "group": "resource", "lat": 10.192724132789541, "lon": -72.68156831647588, "alt_km": 611.3088799722336, "timestamp": "2025-12-11T05:00:25.968144+00:00", "meta": {"OBJECT_NAME": "SKYSAT-B", "OBJECT_ID": "2014-037D", "EPOCH": "2025-12-10T17:39:31.026528", "MEAN_MOTION": 14.87315851, "ECCENTRICITY": 0.00059891, "INCLINATION": 98.3608, "RA_OF_ASC_NODE": 288.3359, "ARG_OF_PERICENTER": 156.2588, "MEAN_ANOMALY": 203.8904, "EPHEMERIS_TYPE": 0, "CLASSIFICATION_TYPE": "U", "NORAD_CAT_ID": 40072, "ELEMENT_SET_NO": 999, "REV_AT_EPOCH": 61794, "BSTAR": 0.00035726525, "MEAN_MOTION_DOT": 3.165e-05, "MEAN_MOTION_DDOT": 0}, "tle": {"line1": "1 40072U 14037D   25344.73577577  .00003165  00000+0  35727-3 0  9995", "line2": "2 40072  98.3608 288.3359 0005989 156.2588 203.8904 14.87315851617949"}}, "geometry": {"type": "Point", "coordinates": [-72.68156831647588, 10.192724132789541]}}]}